ASTRO-H (HITOMI)        
1 41337U 16012A   26064.27126646  .00004856  00000+0  28588-3 0  9996
2 41337  31.0008  25.0587 0009998 287.1051  72.8492 15.09967820551569
HXMT (HUIYAN)           
1 42758U 17034A   26064.30160161  .00006961  00000+0  34898-3 0  9993
2 42758  43.0151  41.0670 0032475 209.1306 150.7730 15.17391548481877
SAOCOM 1A               
1 43641U 18076A   26064.30480796  .00000524  00000+0  72375-4 0  9993
2 43641  97.8883 252.5391 0001324  80.9859 279.1504 14.82163947400714
H-2A R/B                
1 43682U 18084L   26064.18819982  .00023573  00000+0  56440-3 0  9999
2 43682  98.8730 280.6151 0025747  40.5968 319.7187 15.41119210405088
SAOCOM 1B               
1 46265U 20059A   26064.26851829  .00000574  00000+0  78700-4 0  9999
2 46265  97.8881 251.6014 0001445  82.4337 277.7040 14.82166583298095
CSS (TIANHE)            
1 48274U 21035A   26063.91577053  .00022117  00000+0  26479-3 0  9993
2 48274  41.4655 237.2033 0006803 243.7897 116.2243 15.60409426276864
COSMOS 2550             
1 48865U 21056A   26064.27883850 -.00000198  00000+0 -18509-6 0  9992
2 48865  67.1449  54.2738 0008372 269.5116  90.5079 15.33827452262788
CZ-2C R/B               
1 52794U 22058K   26064.13995878  .00037686  00000+0  55741-3 0  9996
2 52794  50.1909 341.6872 0042075 181.2962 178.7906 15.53849210209424
CZ-2C R/B               
1 54039U 22132E   26064.14242244  .00048407  00000+0  56112-3 0  9992
2 54039  97.2959  67.3229 0020789 106.0747 254.2802 15.61400417189666
GSLV R/B                
1 54149U 22138AN  26064.24144157  .00004744  00000+0  41075-3 0  9993
2 54149  87.3887 167.8509 0022391 162.0590 198.1437 14.96738149183267
XRISM                   
1 57800U 23137A   26064.08395891  .00007086  00000+0  40306-3 0  9993
2 57800  31.0029 313.4527 0008122 351.8434   8.2072 15.11436955137092
ACS3                    
1 59588U 24077B   26064.24939983  .00024087  00000+0  19469-1 0  9990
2 59588  97.2102   6.3601 0056414  88.4202 272.3422 13.89370277 93582
SZ-21 MODULE            
1 66515U 25246C   26064.17031800  .00041059  00000+0  35896-3 0  9992
2 66515  41.4734 231.1730 0001468 290.3140  69.7543 15.68139607 17360
